COSMOS 2426 (717)       
1 29671U 06062B   19253.51251654  .00000051  00000-0  10000-3 0  9998
2 29671  65.0807 277.4078 0021164 179.7418 322.7640  2.12961886 98913
COSMOS 2433 (720)       
1 32275U 07052A   19252.94602787 -.00000047  00000-0  10000-3 0  9991
2 32275  65.8874  38.3082 0002174 199.2002 225.5885  2.13104400 92416
COSMOS 2432 (719)       
1 32276U 07052B   19252.75516775 -.00000046  00000-0  10000-3 0  9991
2 32276  65.8997  38.3994 0008476 339.0722 250.2058  2.13103713 92401
COSMOS 2434 (721)       
1 32393U 07065A   19253.37200779  .00000052  00000-0  00000+0 0  9999
2 32393  64.6863 276.0662 0002539 157.1542 121.8601  2.13103033 91126
COSMOS 2436 (723)       
1 32395U 07065C   19253.02448951  .00000053  00000-0  10000-3 0  9995
2 32395  64.6941 276.1338 0014822 350.0277  75.0826  2.13104404 91057
COSMOS 2456 (730)       
1 36111U 09070A   19252.70196966 -.00000040  00000-0  00000+0 0  9995
2 36111  64.2043 155.7344 0004580 317.2836 340.9006  2.13103100 75778
COSMOS 2457 (733)       
1 36112U 09070B   19253.14792481 -.00000036  00000-0  00000+0 0  9994
2 36112  64.1846 155.6199 0005142 170.3589 234.5899  2.13101642 75793
COSMOS 2459 (731)       
1 36400U 10007A   19252.65547093 -.00000048  00000-0  10000-3 0  9996
2 36400  65.7895  37.3246 0024321 354.9411  62.2661  2.13102135 74135
COSMOS 2461 (735)       
1 36401U 10007B   19252.78957843 -.00000049  00000-0  10000-3 0  9990
2 36401  65.7836  37.2905 0008309  79.8165 350.8036  2.13102046 74132
COSMOS 2460 (732)       
1 36402U 10007C   19252.83630639 -.00000049  00000-0  10000-3 0  9998
2 36402  65.7736  37.2534 0002424 122.1328  24.0088  2.13101410 74136
COSMOS 2464 (736)       
1 37139U 10041C   19253.18380441  .00000052  00000-0  00000+0 0  9994
2 37139  64.2863 275.6531 0023552   6.7471 353.5461  2.13100737 70216
COSMOS 2474 (742)       
1 37829U 11055A   19253.13566126 -.00000037  00000-0  00000+0 0  9991
2 37829  64.5259 156.6267 0009107 247.5166 239.4058  2.13101907 61780
COSMOS 2476 (744)       
1 37867U 11064A   19253.13257103 -.00000037  00000-0  00000+0 0  9995
2 37867  64.5058 156.6766 0019182 240.3708 290.3554  2.13102015 61137
COSMOS 2477 (745)       
1 37868U 11064B   19252.95661826 -.00000038  00000-0  00000+0 0  9997
2 37868  64.5129 156.7361 0016878 241.7432 332.6385  2.13101925 61082
COSMOS 2475 (743)       
1 37869U 11064C   19252.53428031 -.00000042  00000-0  00000-0 0  9997
2 37869  64.5205 156.7487 0021027 264.4542 303.1007  2.13102298 61081
COSMOS 2485 (747)       
1 39155U 13019A   19253.53212720 -.00000032  00000-0  00000+0 0  9994
2 39155  64.6744 156.8712 0019622 235.5498 286.3999  2.13102058 49610
COSMOS 2492 (754)       
1 39620U 14012A   19253.09333733 -.00000050  00000-0  10000-3 0  9999
2 39620  65.6646  37.0639 0011650 331.1955 249.2154  2.13103308 42557
COSMOS 2500 (755)       
1 40001U 14032A   19253.44945758 -.00000052  00000-0  00000+0 0  9998
2 40001  65.6050  36.9890 0006885 185.9185 168.9370  2.13102623 40770
COSMOS 2501 (702K)      
1 40315U 14075A   19252.69350135  .00000051  00000-0  00000+0 0  9996
2 40315  64.0076 276.7205 0017843 210.6424  81.5317  2.13098697 37166
COSMOS 2514 (751)       
1 41330U 16008A   19252.67944326 -.00000050  00000-0  00000+0 0  9991
2 41330  65.4097  36.9582 0009924 202.3540 103.6245  2.13103065 27929
COSMOS 2516 (753)       
1 41554U 16032A   19253.52438101  .00000050  00000-0  00000+0 0  9999
2 41554  64.2290 276.6829 0015053 221.2302 263.5308  2.13101755 25559
COSMOS 2522 (752)       
1 42939U 17055A   19253.13566146  .00000051  00000-0  00000+0 0  9992
2 42939  64.4621 276.7937 0010006 244.6248 168.4260  2.13101976 15306
COSMOS 2527 (756)       
1 43508U 18053A   19253.11751883 -.00000036  00000-0  00000+0 0  9990
2 43508  64.8379 156.6737 0007539 235.5194 194.9982  2.13102688  9593
COSMOS 2529 (757)       
1 43687U 18086A   19253.12548273  .00000052  00000-0  00000+0 0  9999
2 43687  64.6731 276.8368 0012160 264.5778  96.3598  2.13102029  6619
COSMOS 2534 (758)       
1 44299U 19030A   19252.61661755  .00000053  00000-0  00000-0 0  9995
2 44299  64.7431 276.6464 0014841 281.7155 184.0361  2.13101995  2249
